[{"OBJECT_NAME":"LIZZIESAT-2 (LS-2)","OBJECT_ID":"2024-247G","EPOCH":"2026-03-09T11:47:37.199328","MEAN_MOTION":15.28222796,"ECCENTRICITY":0.00040927,"INCLINATION":44.9909,"RA_OF_ASC_NODE":117.0823,"ARG_OF_PERICENTER":327.5136,"MEAN_ANOMALY":32.5495,"EPHEMERIS_TYPE":0,"CLASSIFICATION_TYPE":"U","NORAD_CAT_ID":62383,"ELEMENT_SET_NO":999,"REV_AT_EPOCH":6771,"BSTAR":0.00034516624,"MEAN_MOTION_DOT":9.388e-5,"MEAN_MOTION_DDOT":0},{"OBJECT_NAME":"STARLINK-34234","OBJECT_ID":"2025-119R","EPOCH":"2026-03-09T01:37:08.522400","MEAN_MOTION":15.27585996,"ECCENTRICITY":0.00015913,"INCLINATION":43.0018,"RA_OF_ASC_NODE":310.6096,"ARG_OF_PERICENTER":264.1846,"MEAN_ANOMALY":95.8825,"EPHEMERIS_TYPE":0,"CLASSIFICATION_TYPE":"U","NORAD_CAT_ID":64248,"ELEMENT_SET_NO":999,"REV_AT_EPOCH":4407,"BSTAR":0.00060997457,"MEAN_MOTION_DOT":0.00016564,"MEAN_MOTION_DDOT":0}]
